[{"OBJECT_NAME":"STARLINK-4333","OBJECT_ID":"2022-077AX","EPOCH":"2026-03-09T12:19:01.926336","MEAN_MOTION":15.01262655,"ECCENTRICITY":0.00021707,"INCLINATION":97.6023,"RA_OF_ASC_NODE":250.0502,"ARG_OF_PERICENTER":54.3924,"MEAN_ANOMALY":305.7503,"EPHEMERIS_TYPE":0,"CLASSIFICATION_TYPE":"U","NORAD_CAT_ID":53088,"ELEMENT_SET_NO":999,"REV_AT_EPOCH":20089,"BSTAR":4.5768666e-5,"MEAN_MOTION_DOT":5.3e-6,"MEAN_MOTION_DDOT":0},{"OBJECT_NAME":"COSMOS 2251 DEB","OBJECT_ID":"1993-036BYJ","EPOCH":"2026-02-27T08:25:05.077344","MEAN_MOTION":15.02778291,"ECCENTRICITY":0.0017194,"INCLINATION":74.0208,"RA_OF_ASC_NODE":84.7822,"ARG_OF_PERICENTER":181.9976,"MEAN_ANOMALY":194.0424,"EPHEMERIS_TYPE":0,"CLASSIFICATION_TYPE":"U","NORAD_CAT_ID":47116,"ELEMENT_SET_NO":999,"REV_AT_EPOCH":60660,"BSTAR":0.0017596726,"MEAN_MOTION_DOT":0.00023658,"MEAN_MOTION_DDOT":0}]
